[{"OBJECT_NAME":"STARLINK-4085","OBJECT_ID":"2022-086W","EPOCH":"2026-03-09T14:38:47.162976","MEAN_MOTION":15.08838893,"ECCENTRICITY":0.0001322,"INCLINATION":53.2184,"RA_OF_ASC_NODE":194.4805,"ARG_OF_PERICENTER":77.4054,"MEAN_ANOMALY":282.7086,"EPHEMERIS_TYPE":0,"CLASSIFICATION_TYPE":"U","NORAD_CAT_ID":53262,"ELEMENT_SET_NO":999,"REV_AT_EPOCH":20105,"BSTAR":1.613e-5,"MEAN_MOTION_DOT":-3.1e-7,"MEAN_MOTION_DDOT":0},{"OBJECT_NAME":"CZ-6A DEB","OBJECT_ID":"2024-140FB","EPOCH":"2026-03-09T14:48:01.661760","MEAN_MOTION":15.0628726,"ECCENTRICITY":0.0079054,"INCLINATION":89.1878,"RA_OF_ASC_NODE":293.0208,"ARG_OF_PERICENTER":138.3366,"MEAN_ANOMALY":222.3932,"EPHEMERIS_TYPE":0,"CLASSIFICATION_TYPE":"U","NORAD_CAT_ID":60776,"ELEMENT_SET_NO":999,"REV_AT_EPOCH":8515,"BSTAR":0.002571,"MEAN_MOTION_DOT":0.00040709,"MEAN_MOTION_DDOT":0}]
